IRIDIUM 39              
1 25042U 97069D   25306.49090736  .00000655  00000+0  16575-3 0  9990
2 25042  86.3921 151.8935 0016864 198.3446 161.7152 14.49414997468997
IRIDIUM 38              
1 25043U 97069E   25306.13941738  .00000536  00000+0  17003-3 0  9994
2 25043  86.4004 175.1753 0003106  47.2418 312.9041 14.38258332465782
IRIDIUM 42              
1 25077U 97077A   25306.38501212  .00000502  00000+0  16446-3 0  9999
2 25077  86.4014 181.4054 0002605  70.0038 290.1439 14.36485185461037
IRIDIUM 44              
1 25078U 97077B   25306.52207674  .00000518  00000+0  15720-3 0  9992
2 25078  86.3986 162.9262 0000975  23.8035 336.3209 14.40380051463616
IRIDIUM 45              
1 25104U 97082A   25306.38255653  .00024845  00000+0  75533-3 0  9999
2 25104  86.3572 340.5245 0104392 170.3167 190.0128 15.28597366473100
IRIDIUM 24              
1 25105U 97082B   25306.45489257  .00000606  00000+0  17771-3 0  9996
2 25105  86.3951  21.6368 0010708 352.1327   7.9704 14.42269044463143
IRIDIUM 51              
1 25262U 98018A   25306.36420457  .00065633  00000+0  92339-3 0  9991
2 25262  86.3796 346.8327 0066151  76.2645 284.5968 15.53815612468366
IRIDIUM 57              
1 25273U 98019B   25306.49670661  .00000491  00000+0  16251-3 0  9992
2 25273  86.3926  87.2690 0002047  88.4143 271.7288 14.36001207444638
