<?xml version="1.0" encoding="UTF-8"?>
<ndm xmlns:xsi="http://www.w3.org/2001/XMLSchema-instance" xsi:noNamespaceSchemaLocation="https://sanaregistry.org/r/ndmxml_unqualified/ndmxml-2.0.0-master-2.0.xsd">
<omm id="CCSDS_OMM_VERS" version="2.0">
<header><CREATION_DATE/><ORIGINATOR/></header><body><segment><metadata><OBJECT_NAME>IRIDIUM 39</OBJECT_NAME><OBJECT_ID>1997-069D</OBJECT_ID><CENTER_NAME>EARTH</CENTER_NAME><REF_FRAME>TEME</REF_FRAME><TIME_SYSTEM>UTC</TIME_SYSTEM><MEAN_ELEMENT_THEORY>SGP4</MEAN_ELEMENT_THEORY></metadata><data><meanElements><EPOCH>2025-11-02T11:46:54.395904</EPOCH><MEAN_MOTION>14.49414997</MEAN_MOTION><ECCENTRICITY>.0016864</ECCENTRICITY><INCLINATION>86.3921</INCLINATION><RA_OF_ASC_NODE>151.8935</RA_OF_ASC_NODE><ARG_OF_PERICENTER>198.3446</ARG_OF_PERICENTER><MEAN_ANOMALY>161.7152</MEAN_ANOMALY></meanElements><tleParameters><EPHEMERIS_TYPE>0</EPHEMERIS_TYPE><CLASSIFICATION_TYPE>U</CLASSIFICATION_TYPE><NORAD_CAT_ID>25042</NORAD_CAT_ID><ELEMENT_SET_NO>999</ELEMENT_SET_NO><REV_AT_EPOCH>46899</REV_AT_EPOCH><BSTAR>.16575E-3</BSTAR><MEAN_MOTION_DOT>.655E-5</MEAN_MOTION_DOT><MEAN_MOTION_DDOT>0</MEAN_MOTION_DDOT></tleParameters></data></segment></body></omm>
<omm id="CCSDS_OMM_VERS" version="2.0">
<header><CREATION_DATE/><ORIGINATOR/></header><body><segment><metadata><OBJECT_NAME>IRIDIUM 38</OBJECT_NAME><OBJECT_ID>1997-069E</OBJECT_ID><CENTER_NAME>EARTH</CENTER_NAME><REF_FRAME>TEME</REF_FRAME><TIME_SYSTEM>UTC</TIME_SYSTEM><MEAN_ELEMENT_THEORY>SGP4</MEAN_ELEMENT_THEORY></metadata><data><meanElements><EPOCH>2025-11-02T03:20:45.661632</EPOCH><MEAN_MOTION>14.38258332</MEAN_MOTION><ECCENTRICITY>.00031066</ECCENTRICITY><INCLINATION>86.4004</INCLINATION><RA_OF_ASC_NODE>175.1753</RA_OF_ASC_NODE><ARG_OF_PERICENTER>47.2418</ARG_OF_PERICENTER><MEAN_ANOMALY>312.9041</MEAN_ANOMALY></meanElements><tleParameters><EPHEMERIS_TYPE>0</EPHEMERIS_TYPE><CLASSIFICATION_TYPE>U</CLASSIFICATION_TYPE><NORAD_CAT_ID>25043</NORAD_CAT_ID><ELEMENT_SET_NO>999</ELEMENT_SET_NO><REV_AT_EPOCH>46578</REV_AT_EPOCH><BSTAR>.17002974E-3</BSTAR><MEAN_MOTION_DOT>.536E-5</MEAN_MOTION_DOT><MEAN_MOTION_DDOT>0</MEAN_MOTION_DDOT></tleParameters></data></segment></body></omm>
<omm id="CCSDS_OMM_VERS" version="2.0">
<header><CREATION_DATE/><ORIGINATOR/></header><body><segment><metadata><OBJECT_NAME>IRIDIUM 42</OBJECT_NAME><OBJECT_ID>1997-077A</OBJECT_ID><CENTER_NAME>EARTH</CENTER_NAME><REF_FRAME>TEME</REF_FRAME><TIME_SYSTEM>UTC</TIME_SYSTEM><MEAN_ELEMENT_THEORY>SGP4</MEAN_ELEMENT_THEORY></metadata><data><meanElements><EPOCH>2025-11-02T09:14:25.047168</EPOCH><MEAN_MOTION>14.36485185</MEAN_MOTION><ECCENTRICITY>.0002605</ECCENTRICITY><INCLINATION>86.4014</INCLINATION><RA_OF_ASC_NODE>181.4054</RA_OF_ASC_NODE><ARG_OF_PERICENTER>70.0038</ARG_OF_PERICENTER><MEAN_ANOMALY>290.1439</MEAN_ANOMALY></meanElements><tleParameters><EPHEMERIS_TYPE>0</EPHEMERIS_TYPE><CLASSIFICATION_TYPE>U</CLASSIFICATION_TYPE><NORAD_CAT_ID>25077</NORAD_CAT_ID><ELEMENT_SET_NO>999</ELEMENT_SET_NO><REV_AT_EPOCH>46103</REV_AT_EPOCH><BSTAR>.16446E-3</BSTAR><MEAN_MOTION_DOT>.502E-5</MEAN_MOTION_DOT><MEAN_MOTION_DDOT>0</MEAN_MOTION_DDOT></tleParameters></data></segment></body></omm>
<omm id="CCSDS_OMM_VERS" version="2.0">
<header><CREATION_DATE/><ORIGINATOR/></header><body><segment><metadata><OBJECT_NAME>IRIDIUM 44</OBJECT_NAME><OBJECT_ID>1997-077B</OBJECT_ID><CENTER_NAME>EARTH</CENTER_NAME><REF_FRAME>TEME</REF_FRAME><TIME_SYSTEM>UTC</TIME_SYSTEM><MEAN_ELEMENT_THEORY>SGP4</MEAN_ELEMENT_THEORY></metadata><data><meanElements><EPOCH>2025-11-02T12:31:47.430336</EPOCH><MEAN_MOTION>14.40380051</MEAN_MOTION><ECCENTRICITY>.0000975</ECCENTRICITY><INCLINATION>86.3986</INCLINATION><RA_OF_ASC_NODE>162.9262</RA_OF_ASC_NODE><ARG_OF_PERICENTER>23.8035</ARG_OF_PERICENTER><MEAN_ANOMALY>336.3209</MEAN_ANOMALY></meanElements><tleParameters><EPHEMERIS_TYPE>0</EPHEMERIS_TYPE><CLASSIFICATION_TYPE>U</CLASSIFICATION_TYPE><NORAD_CAT_ID>25078</NORAD_CAT_ID><ELEMENT_SET_NO>999</ELEMENT_SET_NO><REV_AT_EPOCH>46361</REV_AT_EPOCH><BSTAR>.1572E-3</BSTAR><MEAN_MOTION_DOT>.518E-5</MEAN_MOTION_DOT><MEAN_MOTION_DDOT>0</MEAN_MOTION_DDOT></tleParameters></data></segment></body></omm>
<omm id="CCSDS_OMM_VERS" version="2.0">
<header><CREATION_DATE/><ORIGINATOR/></header><body><segment><metadata><OBJECT_NAME>IRIDIUM 45</OBJECT_NAME><OBJECT_ID>1997-082A</OBJECT_ID><CENTER_NAME>EARTH</CENTER_NAME><REF_FRAME>TEME</REF_FRAME><TIME_SYSTEM>UTC</TIME_SYSTEM><MEAN_ELEMENT_THEORY>SGP4</MEAN_ELEMENT_THEORY></metadata><data><meanElements><EPOCH>2025-11-02T09:10:52.884192</EPOCH><MEAN_MOTION>15.28597366</MEAN_MOTION><ECCENTRICITY>.0104392</ECCENTRICITY><INCLINATION>86.3572</INCLINATION><RA_OF_ASC_NODE>340.5245</RA_OF_ASC_NODE><ARG_OF_PERICENTER>170.3167</ARG_OF_PERICENTER><MEAN_ANOMALY>190.0128</MEAN_ANOMALY></meanElements><tleParameters><EPHEMERIS_TYPE>0</EPHEMERIS_TYPE><CLASSIFICATION_TYPE>U</CLASSIFICATION_TYPE><NORAD_CAT_ID>25104</NORAD_CAT_ID><ELEMENT_SET_NO>999</ELEMENT_SET_NO><REV_AT_EPOCH>47310</REV_AT_EPOCH><BSTAR>.75533E-3</BSTAR><MEAN_MOTION_DOT>.24845E-3</MEAN_MOTION_DOT><MEAN_MOTION_DDOT>0</MEAN_MOTION_DDOT></tleParameters></data></segment></body></omm>
<omm id="CCSDS_OMM_VERS" version="2.0">
<header><CREATION_DATE/><ORIGINATOR/></header><body><segment><metadata><OBJECT_NAME>IRIDIUM 24</OBJECT_NAME><OBJECT_ID>1997-082B</OBJECT_ID><CENTER_NAME>EARTH</CENTER_NAME><REF_FRAME>TEME</REF_FRAME><TIME_SYSTEM>UTC</TIME_SYSTEM><MEAN_ELEMENT_THEORY>SGP4</MEAN_ELEMENT_THEORY></metadata><data><meanElements><EPOCH>2025-11-02T10:55:02.718048</EPOCH><MEAN_MOTION>14.42269044</MEAN_MOTION><ECCENTRICITY>.0010708</ECCENTRICITY><INCLINATION>86.3951</INCLINATION><RA_OF_ASC_NODE>21.6368</RA_OF_ASC_NODE><ARG_OF_PERICENTER>352.1327</ARG_OF_PERICENTER><MEAN_ANOMALY>7.9704</MEAN_ANOMALY></meanElements><tleParameters><EPHEMERIS_TYPE>0</EPHEMERIS_TYPE><CLASSIFICATION_TYPE>U</CLASSIFICATION_TYPE><NORAD_CAT_ID>25105</NORAD_CAT_ID><ELEMENT_SET_NO>999</ELEMENT_SET_NO><REV_AT_EPOCH>46314</REV_AT_EPOCH><BSTAR>.17771E-3</BSTAR><MEAN_MOTION_DOT>.606E-5</MEAN_MOTION_DOT><MEAN_MOTION_DDOT>0</MEAN_MOTION_DDOT></tleParameters></data></segment></body></omm>
<omm id="CCSDS_OMM_VERS" version="2.0">
<header><CREATION_DATE/><ORIGINATOR/></header><body><segment><metadata><OBJECT_NAME>IRIDIUM 51</OBJECT_NAME><OBJECT_ID>1998-018A</OBJECT_ID><CENTER_NAME>EARTH</CENTER_NAME><REF_FRAME>TEME</REF_FRAME><TIME_SYSTEM>UTC</TIME_SYSTEM><MEAN_ELEMENT_THEORY>SGP4</MEAN_ELEMENT_THEORY></metadata><data><meanElements><EPOCH>2025-11-02T08:44:27.274848</EPOCH><MEAN_MOTION>15.53815612</MEAN_MOTION><ECCENTRICITY>.0066151</ECCENTRICITY><INCLINATION>86.3796</INCLINATION><RA_OF_ASC_NODE>346.8327</RA_OF_ASC_NODE><ARG_OF_PERICENTER>76.2645</ARG_OF_PERICENTER><MEAN_ANOMALY>284.5968</MEAN_ANOMALY></meanElements><tleParameters><EPHEMERIS_TYPE>0</EPHEMERIS_TYPE><CLASSIFICATION_TYPE>U</CLASSIFICATION_TYPE><NORAD_CAT_ID>25262</NORAD_CAT_ID><ELEMENT_SET_NO>999</ELEMENT_SET_NO><REV_AT_EPOCH>46836</REV_AT_EPOCH><BSTAR>.92339E-3</BSTAR><MEAN_MOTION_DOT>.65633E-3</MEAN_MOTION_DOT><MEAN_MOTION_DDOT>0</MEAN_MOTION_DDOT></tleParameters></data></segment></body></omm>
<omm id="CCSDS_OMM_VERS" version="2.0">
<header><CREATION_DATE/><ORIGINATOR/></header><body><segment><metadata><OBJECT_NAME>IRIDIUM 57</OBJECT_NAME><OBJECT_ID>1998-019B</OBJECT_ID><CENTER_NAME>EARTH</CENTER_NAME><REF_FRAME>TEME</REF_FRAME><TIME_SYSTEM>UTC</TIME_SYSTEM><MEAN_ELEMENT_THEORY>SGP4</MEAN_ELEMENT_THEORY></metadata><data><meanElements><EPOCH>2025-11-02T11:55:15.451104</EPOCH><MEAN_MOTION>14.36001207</MEAN_MOTION><ECCENTRICITY>.0002047</ECCENTRICITY><INCLINATION>86.3926</INCLINATION><RA_OF_ASC_NODE>87.2690</RA_OF_ASC_NODE><ARG_OF_PERICENTER>88.4143</ARG_OF_PERICENTER><MEAN_ANOMALY>271.7288</MEAN_ANOMALY></meanElements><tleParameters><EPHEMERIS_TYPE>0</EPHEMERIS_TYPE><CLASSIFICATION_TYPE>U</CLASSIFICATION_TYPE><NORAD_CAT_ID>25273</NORAD_CAT_ID><ELEMENT_SET_NO>999</ELEMENT_SET_NO><REV_AT_EPOCH>44463</REV_AT_EPOCH><BSTAR>.16251E-3</BSTAR><MEAN_MOTION_DOT>.491E-5</MEAN_MOTION_DOT><MEAN_MOTION_DDOT>0</MEAN_MOTION_DDOT></tleParameters></data></segment></body></omm>

</ndm>
